start=new Date('2022-05-31T00:00:00.000Z').valueOf();
sats=[{"RCS_SIZE":"LARGE","EPHEMERIS_TYPE":"0","APOAPSIS":"548.522","TIME_SYSTEM":"UTC","COUNTRY_CODE":"US","INCLINATION":"53.0558","ELEMENT_SET_NO":"999","MEAN_ANOMALY":"299.2297","OBJECT_TYPE":"PAYLOAD","LAUNCH_DATE":"2021-04-29","TLE_LINE1":"1 48328U 21036BE  22150.46933170 -.00000228  00000-0  35822-5 0  9998","PERIAPSIS":"545.964","SITE":"AFETR","CLASSIFICATION_TYPE":"U","EPOCH":"2022-05-30T11:15:50.258880","PERIOD":"95.593","MEAN_MOTION_DDOT":"0.0000000000000","MEAN_ELEMENT_THEORY":"SGP4","RA_OF_ASC_NODE":"173.1838","NORAD_CAT_ID":"48328","ECCENTRICITY":"0.00018470","CENTER_NAME":"EARTH","FILE":"3472495","SEMIMAJOR_AXIS":"6925.378","MEAN_MOTION":"15.06390465","ARG_OF_PERICENTER":"60.8877","OBJECT_ID":"2021-036BE","OBJECT_NAME":"STARLINK-2504","TLE_LINE2":"2 48328  53.0558 173.1838 0001847  60.8877 299.2297 15.06390465 60151","BSTAR":"0.00000358220000","REV_AT_EPOCH":"6015","DECAY_DATE":null,"MEAN_MOTION_DOT":"-0.00000228","REF_FRAME":"TEME","GP_ID":"204941619"},{"OBJECT_NAME":"STARLINK-2510","OBJECT_ID":"2021-036BF","TLE_LINE2":"2 48329  53.0541 171.7140 0001990  49.3111 310.8051 15.06383091 60207","BSTAR":"-0.00006798600000","MEAN_MOTION_DOT":"-0.00001294","REV_AT_EPOCH":"6020","DECAY_DATE":null,"REF_FRAME":"TEME","GP_ID":"204977588","CENTER_NAME":"EARTH","FILE":"3472994","MEAN_MOTION":"15.06383091","SEMIMAJOR_AXIS":"6925.400","ARG_OF_PERICENTER":"49.3111","EPOCH":"2022-05-30T19:08:13.310592","PERIOD":"95.593","MEAN_MOTION_DDOT":"0.0000000000000","MEAN_ELEMENT_THEORY":"SGP4","ECCENTRICITY":"0.00019900","RA_OF_ASC_NODE":"171.7140","NORAD_CAT_ID":"48329","EPHEMERIS_TYPE":"0","RCS_SIZE":"LARGE","ELEMENT_SET_NO":"999","MEAN_ANOMALY":"310.8051","OBJECT_TYPE":"PAYLOAD","LAUNCH_DATE":"2021-04-29","APOAPSIS":"548.644","TIME_SYSTEM":"UTC","INCLINATION":"53.0541","COUNTRY_CODE":"US","SITE":"AFETR","CLASSIFICATION_TYPE":"U","TLE_LINE1":"1 48329U 21036BF  22150.79737628 -.00001294  00000-0 -67986-4 0  9995","PERIAPSIS":"545.887"},{"ECCENTRICITY":"0.00017770","RA_OF_ASC_NODE":"171.7289","NORAD_CAT_ID":"48330","MEAN_MOTION_DDOT":"0.0000000000000","MEAN_ELEMENT_THEORY":"SGP4","EPOCH":"2022-05-30T19:02:55.152096","PERIOD":"95.593","CLASSIFICATION_TYPE":"U","SITE":"AFETR","TLE_LINE1":"1 48330U 21036BG  22150.79369389 -.00001946  00000-0 -11181-3 0  9991","PERIAPSIS":"546.026","MEAN_ANOMALY":"301.8915","ELEMENT_SET_NO":"999","LAUNCH_DATE":"2021-04-29","OBJECT_TYPE":"PAYLOAD","APOAPSIS":"548.488","TIME_SYSTEM":"UTC","COUNTRY_CODE":"US","INCLINATION":"53.0537","EPHEMERIS_TYPE":"0","RCS_SIZE":"LARGE","REF_FRAME":"TEME","GP_ID":"204977837","MEAN_MOTION_DOT":"-0.00001946","REV_AT_EPOCH":"6020","DECAY_DATE":null,"TLE_LINE2":"2 48330  53.0537 171.7289 0001777  58.2247 301.8915 15.06385817 60207","BSTAR":"-0.00011181000000","OBJECT_NAME":"STARLINK-2501","OBJECT_ID":"2021-036BG","ARG_OF_PERICENTER":"58.2247","MEAN_MOTION":"15.06385817","SEMIMAJOR_AXIS":"6925.392","FILE":"3472994","CENTER_NAME":"EARTH"},{"EPOCH":"2022-05-30T18:57:37.269216","PERIOD":"95.593","MEAN_ELEMENT_THEORY":"SGP4","MEAN_MOTION_DDOT":"0.0000000000000","RA_OF_ASC_NODE":"171.7484","NORAD_CAT_ID":"48331","ECCENTRICITY":"0.00017650","RCS_SIZE":"LARGE","EPHEMERIS_TYPE":"0","TIME_SYSTEM":"UTC","APOAPSIS":"548.474","INCLINATION":"53.0537","COUNTRY_CODE":"US","ELEMENT_SET_NO":"999","MEAN_ANOMALY":"306.6437","LAUNCH_DATE":"2021-04-29","OBJECT_TYPE":"PAYLOAD","TLE_LINE1":"1 48331U 21036BH  22150.79001469 -.00000759  00000-0 -32035-4 0  9997","PERIAPSIS":"546.030","SITE":"AFETR","CLASSIFICATION_TYPE":"U","OBJECT_ID":"2021-036BH","OBJECT_NAME":"STARLINK-2514","TLE_LINE2":"2 48331  53.0537 171.7484 0001765  53.4715 306.6437 15.06387422 60205","BSTAR":"-0.00003203500000","REV_AT_EPOCH":"6020","DECAY_DATE":null,"MEAN_MOTION_DOT":"-0.00000759","GP_ID":"204978087","REF_FRAME":"TEME","CENTER_NAME":"EARTH","FILE":"3472994","SEMIMAJOR_AXIS":"6925.387","MEAN_MOTION":"15.06387422","ARG_OF_PERICENTER":"53.4715"},{"EPHEMERIS_TYPE":"0","RCS_SIZE":"LARGE","OBJECT_TYPE":"PAYLOAD","LAUNCH_DATE":"2021-04-29","MEAN_ANOMALY":"310.6307","ELEMENT_SET_NO":"999","COUNTRY_CODE":"US","INCLINATION":"53.0530","APOAPSIS":"548.610","TIME_SYSTEM":"UTC","SITE":"AFETR","CLASSIFICATION_TYPE":"U","PERIAPSIS":"545.896","TLE_LINE1":"1 48332U 21036BJ  22150.78906113 -.00001369  00000-0 -73021-4 0  9995","PERIOD":"95.593","EPOCH":"2022-05-30T18:56:14.881632","MEAN_MOTION_DDOT":"0.0000000000000","MEAN_ELEMENT_THEORY":"SGP4","ECCENTRICITY":"0.00019600","NORAD_CAT_ID":"48332","RA_OF_ASC_NODE":"171.7380","CENTER_NAME":"EARTH","FILE":"3472994","MEAN_MOTION":"15.06387139","SEMIMAJOR_AXIS":"6925.388","ARG_OF_PERICENTER":"49.4852","OBJECT_NAME":"STARLINK-2511","OBJECT_ID":"2021-036BJ","BSTAR":"-0.00007302100000","TLE_LINE2":"2 48332  53.0530 171.7380 0001960  49.4852 310.6307 15.06387139 60204","MEAN_MOTION_DOT":"-0.00001369","DECAY_DATE":null,"REV_AT_EPOCH":"6020","GP_ID":"204977339","REF_FRAME":"TEME"},{"MEAN_ELEMENT_THEORY":"SGP4","MEAN_MOTION_DDOT":"0.0000000000000","ECCENTRICITY":"0.00017870","RA_OF_ASC_NODE":"171.7627","NORAD_CAT_ID":"48333","EPOCH":"2022-05-30T18:46:59.908512","PERIOD":"95.593","SITE":"AFETR","CLASSIFICATION_TYPE":"U","TLE_LINE1":"1 48333U 21036BK  22150.78263783 -.00002142  00000-0 -12502-3 0  9991","PERIAPSIS":"546.024","EPHEMERIS_TYPE":"0","RCS_SIZE":"LARGE","MEAN_ANOMALY":"307.1150","ELEMENT_SET_NO":"999","OBJECT_TYPE":"PAYLOAD","LAUNCH_DATE":"2021-04-29","TIME_SYSTEM":"UTC","APOAPSIS":"548.499","COUNTRY_CODE":"US","INCLINATION":"53.0534","MEAN_MOTION_DOT":"-0.00002142","REV_AT_EPOCH":"6020","DECAY_DATE":null,"REF_FRAME":"TEME","GP_ID":"204977089","OBJECT_NAME":"STARLINK-2518","OBJECT_ID":"2021-036BK","TLE_LINE2":"2 48333  53.0534 171.7627 0001787  53.0002 307.1150 15.06384257 60203","BSTAR":"-0.00012502000000","MEAN_MOTION":"15.06384257","SEMIMAJOR_AXIS":"6925.397","ARG_OF_PERICENTER":"53.0002","CENTER_NAME":"EARTH","FILE":"3472994"},{"FILE":"3472994","CENTER_NAME":"EARTH","ARG_OF_PERICENTER":"53.5008","SEMIMAJOR_AXIS":"6925.376","MEAN_MOTION":"15.06390988","BSTAR":"-0.00008703400000","TLE_LINE2":"2 48334  53.0535 171.7826 0001929  53.5008 306.6158 15.06390988 60205","OBJECT_ID":"2021-036BL","OBJECT_NAME":"STARLINK-2470","GP_ID":"204978337","REF_FRAME":"TEME","DECAY_DATE":null,"REV_AT_EPOCH":"6020","MEAN_MOTION_DOT":"-0.00001577","COUNTRY_CODE":"US","INCLINATION":"53.0535","APOAPSIS":"548.577","TIME_SYSTEM":"UTC","LAUNCH_DATE":"2021-04-29","OBJECT_TYPE":"PAYLOAD","ELEMENT_SET_NO":"999","MEAN_ANOMALY":"306.6158","RCS_SIZE":"LARGE","EPHEMERIS_TYPE":"0","PERIAPSIS":"545.905","TLE_LINE1":"1 48334U 21036BL  22150.77893890 -.00001577  00000-0 -87034-4 0  9993","SITE":"AFETR","CLASSIFICATION_TYPE":"U","PERIOD":"95.593","EPOCH":"2022-05-30T18:41:40.320960","NORAD_CAT_ID":"48334","RA_OF_ASC_NODE":"171.7826","ECCENTRICITY":"0.00019290","MEAN_ELEMENT_THEORY":"SGP4","MEAN_MOTION_DDOT":"0.0000000000000"},{"OBJECT_NAME":"STARLINK-2441","OBJECT_ID":"2021-036BM","TLE_LINE2":"2 48335  53.0549 173.3103 0001541  64.1293 295.9854 15.06388101 60152","BSTAR":"-0.00009549500000","MEAN_MOTION_DOT":"-0.00001703","DECAY_DATE":null,"REV_AT_EPOCH":"6015","GP_ID":"204941370","REF_FRAME":"TEME","CENTER_NAME":"EARTH","FILE":"3472495","MEAN_MOTION":"15.06388101","SEMIMAJOR_AXIS":"6925.385","ARG_OF_PERICENTER":"64.1293","PERIOD":"95.593","EPOCH":"2022-05-30T10:38:40.566912","MEAN_ELEMENT_THEORY":"SGP4","MEAN_MOTION_DDOT":"0.0000000000000","ECCENTRICITY":"0.00015410","NORAD_CAT_ID":"48335","RA_OF_ASC_NODE":"173.3103","EPHEMERIS_TYPE":"0","RCS_SIZE":"LARGE","OBJECT_TYPE":"PAYLOAD","LAUNCH_DATE":"2021-04-29","MEAN_ANOMALY":"295.9854","ELEMENT_SET_NO":"999","COUNTRY_CODE":"US","INCLINATION":"53.0549","TIME_SYSTEM":"UTC","APOAPSIS":"548.317","SITE":"AFETR","CLASSIFICATION_TYPE":"U","PERIAPSIS":"546.183","TLE_LINE1":"1 48335U 21036BM  22150.44352508 -.00001703  00000-0 -95495-4 0  9995"},{"TLE_LINE1":"1 48353U 21038A   22150.78078608 -.00001671  00000-0 -93308-4 0  9995","PERIAPSIS":"546.059","CLASSIFICATION_TYPE":"U","SITE":"AFETR","RCS_SIZE":"LARGE","EPHEMERIS_TYPE":"0","APOAPSIS":"548.433","TIME_SYSTEM":"UTC","COUNTRY_CODE":"US","INCLINATION":"53.0572","MEAN_ANOMALY":"319.9882","ELEMENT_SET_NO":"999","LAUNCH_DATE":"2021-05-04","OBJECT_TYPE":"PAYLOAD","MEAN_MOTION_DDOT":"0.0000000000000","MEAN_ELEMENT_THEORY":"SGP4","RA_OF_ASC_NODE":"71.7944","NORAD_CAT_ID":"48353","ECCENTRICITY":"0.00017140","EPOCH":"2022-05-30T18:44:19.917312","PERIOD":"95.593","SEMIMAJOR_AXIS":"6925.381","MEAN_MOTION":"15.06389449","ARG_OF_PERICENTER":"40.1234","CENTER_NAME":"EARTH","FILE":"3472994","REV_AT_EPOCH":"5919","DECAY_DATE":null,"MEAN_MOTION_DOT":"-0.00001671","GP_ID":"204977091","REF_FRAME":"TEME","OBJECT_ID":"2021-038A","OBJECT_NAME":"STARLINK-2613","TLE_LINE2":"2 48353  53.0572  71.7944 0001714  40.1234 319.9882 15.06389449 59199","BSTAR":"-0.00009330800000"},{"CLASSIFICATION_TYPE":"U","SITE":"AFETR","TLE_LINE1":"1 48354U 21038B   22150.51171615 -.00002781  00000-0 -16794-3 0  9995","PERIAPSIS":"546.244","EPHEMERIS_TYPE":"0","RCS_SIZE":"LARGE","MEAN_ANOMALY":"306.7904","ELEMENT_SET_NO":"999","OBJECT_TYPE":"PAYLOAD","LAUNCH_DATE":"2021-05-04","TIME_SYSTEM":"UTC","APOAPSIS":"548.309","COUNTRY_CODE":"US","INCLINATION":"53.0565","MEAN_ELEMENT_THEORY":"SGP4","MEAN_MOTION_DDOT":"0.0000000000000","ECCENTRICITY":"0.00014910","RA_OF_ASC_NODE":"73.0040","NORAD_CAT_ID":"48354","EPOCH":"2022-05-30T12:16:52.275360","PERIOD":"95.593","MEAN_MOTION":"15.06379491","SEMIMAJOR_AXIS":"6925.411","ARG_OF_PERICENTER":"53.3222","CENTER_NAME":"EARTH","FILE":"3472659","MEAN_MOTION_DOT":"-0.00002781","REV_AT_EPOCH":"5974","DECAY_DATE":null,"REF_FRAME":"TEME","GP_ID":"204948540","OBJECT_NAME":"STARLINK-2674","OBJECT_ID":"2021-038B","BSTAR":"-0.00016794000000","TLE_LINE2":"2 48354  53.0565  73.0040 0001491  53.3222 306.7904 15.06379491 59745"}];
